     3.02           N: GNSS NAV DATA    C: BEIDOU           RINEX VERSION / TYPE
Converto v3.5.6     IGN                 20210829 012102 UTC PGM / RUN BY / DATE
     4     4   573     6                                    LEAP SECONDS
BDSA   1.3970E-08 -1.4901E-08 -2.3842E-07  4.1723E-07       IONOSPHERIC CORR
BDSB   1.3312E+05 -4.5875E+05  3.6045E+06 -2.7525E+06       IONOSPHERIC CORR
BDUT -9.3132257462E-10 2.042810365E-14 518345  816          TIME SYSTEM CORR
                                                            END OF HEADER
C22 2021 08 28 02 00 00-9.502501925454D-04-6.838973831691D-14 0.000000000000D+00
     1.000000000000D+00-2.851562500000D+01 3.983737367223D-09 1.039760033745D+00
    -1.602340489626D-06 5.824448307976D-04 5.404464900494D-06 5.282619533539D+03
     5.256000000000D+05 2.607703208923D-08 2.638265158334D+00 1.117587089539D-08
     9.662913866463D-01 2.556875000000D+02 2.002764913483D-01-6.956004031203D-09
     3.428714248282D-11                    8.160000000000D+02                   
     2.000000000000D+00 0.000000000000D+00 1.660000000000D-08 1.660000000000D-08
     5.279400000000D+05 1.000000000000D+00                                      
C22 2021 08 28 03 00 00-9.502508910373D-04-1.314504061156D-13 0.000000000000D+00
     1.000000000000D+00-2.935937500000D+01 3.926592129752D-09 1.526336504031D+00
    -1.601409167051D-06 5.825052503496D-04 5.449168384075D-06 5.282620655060D+03
     5.292000000000D+05 1.862645149231D-08 2.638240048808D+00 2.747401595116D-08
     9.662915183089D-01 2.514062500000D+02 2.012690929685D-01-6.953861084798D-09
     4.678766317969D-11                    8.160000000000D+02                   
     2.000000000000D+00 0.000000000000D+00 1.660000000000D-08 1.660000000000D-08
     5.292000000000D+05 1.000000000000D+00                                      
C22 2021 08 28 11 00 00-9.502540342510D-04-1.421085471520D-13 0.000000000000D+00
     1.000000000000D+00-3.107812500000D+01 3.990880521907D-09-8.580532159206D-01
    -1.627020537853D-06 5.835666088387D-04 5.647074431181D-06 5.282616552353D+03
     5.580000000000D+05 3.678724169731D-08 2.638042411501D+00-1.071020960808D-08
     9.662922761005D-01 2.517500000000D+02 2.030236832656D-01-6.917430995910D-09
    -1.250052069686D-10                    8.160000000000D+02                   
     2.000000000000D+00 0.000000000000D+00 1.660000000000D-08 1.660000000000D-08
     5.603400000000D+05 1.000000000000D+00                                      
C22 2021 08 28 12 00 00-9.502536850050D-04-4.174438572591D-14 0.000000000000D+00
     1.000000000000D+00-3.100000000000D+01 4.044811339771D-09-3.704817609210D-01
    -1.683831214905D-06 5.835773190483D-04 5.495268851519D-06 5.282616579056D+03
     5.616000000000D+05 1.303851604462D-08 2.638017543357D+00 1.303851604462D-08
     9.662916909332D-01 2.517187500000D+02 2.030221589050D-01-6.944932141443D-09
    -1.307197307158D-10                    8.160000000000D+02                   
     2.000000000000D+00 0.000000000000D+00 1.660000000000D-08 1.660000000000D-08
     5.616000000000D+05 1.000000000000D+00                                      
C22 2021 08 28 13 00 00-9.502547327429D-04-1.492139745096D-13 0.000000000000D+00
     1.000000000000D+00-3.012500000000D+01 4.080169955456D-09 1.170466755096D-01
    -1.558102667332D-06 5.837858188897D-04 5.319714546204D-06 5.282617002487D+03
     5.652000000000D+05 1.816079020500D-08 2.637992515754D+00-1.071020960808D-08
     9.662911672086D-01 2.528125000000D+02 2.030638666994D-01-6.956004031203D-09
    -1.232194182976D-10                    8.160000000000D+02                   
     2.000000000000D+00 0.000000000000D+00 1.660000000000D-08 1.660000000000D-08
     5.652000000000D+05 1.000000000000D+00                                      
C22 2021 08 28 14 00 00-9.502564789727D-04-3.019806626980D-13 0.000000000000D+00
     1.000000000000D+00-2.590625000000D+01 4.103742365913D-09 6.040427882353D-01
    -1.226551830769D-06 5.842787213624D-04 5.326233804226D-06 5.282618183136D+03
     5.688000000000D+05 2.374872565269D-08 2.637967376970D+00-3.632158041000D-08
     9.662906742052D-01 2.526562500000D+02 2.036379464750D-01-6.972433286976D-09
    -1.146476326769D-10                    8.160000000000D+02                   
     2.000000000000D+00 0.000000000000D+00 1.660000000000D-08 1.660000000000D-08
     5.688000000000D+05 1.000000000000D+00                                      
C22 2021 08 28 15 00 00-9.502564789727D-04-1.660893644839D-13 0.000000000000D+00
     1.000000000000D+00-2.256250000000D+01 4.109814047394D-09 1.090368407569D+00
    -1.021660864353D-06 5.846781423315D-04 5.627050995827D-06 5.282619806290D+03
     5.724000000000D+05 8.149072527885D-08 2.637941951454D+00 1.862645149231D-08
     9.662902075343D-01 2.477343750000D+02 2.048823865166D-01-6.991362646888D-09
    -5.928818387655D-11                    8.160000000000D+02                   
     2.000000000000D+00 0.000000000000D+00 1.660000000000D-08 1.660000000000D-08
     5.724000000000D+05 1.000000000000D+00                                      
C22 2021 08 28 16 00 00-9.502554312348D-04 6.217248937901D-14 0.000000000000D+00
     1.000000000000D+00-2.398437500000D+01 4.098027842166D-09 1.576856579046D+00
    -1.117121428251D-06 5.847057327628D-04 5.898997187614D-06 5.282621046066D+03
     5.760000000000D+05 2.281740307808D-08 2.637916360628D+00 1.052394509315D-07
     9.662900524650D-01 2.434218750000D+02 2.059638823538D-01-6.973147602444D-09
     1.464346710204D-11                    8.160000000000D+02                   
     2.000000000000D+00 0.000000000000D+00 1.660000000000D-08 1.660000000000D-08
     5.760000000000D+05 1.000000000000D+00                                      
C22 2021 08 28 17 00 00-9.502565953881D-04-1.358912982141D-13 0.000000000000D+00
     1.000000000000D+00-2.465625000000D+01 4.072669643038D-09 2.064240742495D+00
    -1.198146492243D-06 5.846747662872D-04 5.933456122875D-06 5.282621269226D+03
     5.796000000000D+05-7.404014468193D-08 2.637890845873D+00 5.774199962616D-08
     9.662903260307D-01 2.429375000000D+02 2.061490014705D-01-6.913859418568D-09
     7.536028191537D-11                    8.160000000000D+02                   
     2.000000000000D+00 0.000000000000D+00 1.660000000000D-08 1.660000000000D-08
     5.796000000000D+05 1.000000000000D+00                                      
C22 2021 08 28 18 00 00-9.502589236945D-04-3.579359031392D-13 0.000000000000D+00
     1.000000000000D+00-2.293750000000D+01 4.043739866568D-09 2.552135786197D+00
    -1.113396137953D-06 5.849732551724D-04 6.031710654497D-06 5.282620574951D+03
     5.832000000000D+05-4.796311259270D-08 2.637865772920D+00-1.816079020500D-08
     9.662909024204D-01 2.410156250000D+02 2.058229828620D-01-6.848856710944D-09
     9.857553463812D-11                    8.160000000000D+02                   
     2.000000000000D+00 0.000000000000D+00 1.660000000000D-08 1.660000000000D-08
     5.832000000000D+05 1.000000000000D+00                                      
C22 2021 08 28 19 00 00-9.502582252026D-04-7.993605777301D-14 0.000000000000D+00
     1.000000000000D+00-2.351562500000D+01 4.054097440860D-09 3.039800774327D+00
    -1.151580363512D-06 5.854484625161D-04 6.248243153095D-06 5.282619647980D+03
     5.868000000000D+05-6.286427378654D-08 2.637841105196D+00-3.352761268616D-08
     9.662911847636D-01 2.375625000000D+02 2.057270256764D-01-6.863857335780D-09
     1.025042697143D-10                    8.160000000000D+02                   
     2.000000000000D+00 0.000000000000D+00 1.660000000000D-08 1.660000000000D-08
     5.868000000000D+05 1.000000000000D+00                                      
C23 2021 08 27 23 00 00-9.608446853235D-04 8.260059303211D-14 0.000000000000D+00
     1.000000000000D+00 7.907812500000D+01 4.230533361553D-09 2.452456189479D+00
     3.990251570940D-06 4.198007518426D-04 7.564201951027D-06 5.282622453690D+03
     5.148000000000D+05 3.445893526077D-08-1.542174390165D+00-7.264316082001D-08
     9.486404651746D-01 1.974375000000D+02-1.602721264734D+00-7.065651455601D-09
     5.500229106620D-11                    8.160000000000D+02                   
     2.000000000000D+00 0.000000000000D+00 2.500000000000D-08 2.500000000000D-08
     5.148000000000D+05 1.000000000000D+00                                      
C23 2021 08 28 00 00 00-9.608435211703D-04 1.953992523340D-13 0.000000000000D+00
     1.000000000000D+00 8.664062500000D+01 4.200889269614D-09 2.938887621677D+00
     4.382804036140D-06 4.178383387625D-04 8.224509656429D-06 5.282626390457D+03
     5.184000000000D+05 1.001171767712D-07-1.542200225298D+00-2.328306436539D-09
     9.486406129293D-01 1.848281250000D+02-1.601583388034D+00-7.086723761919D-09
     1.217907873609D-10                    8.160000000000D+02                   
     2.000000000000D+00 0.000000000000D+00 2.500000000000D-08 2.500000000000D-08
     5.184000000000D+05 1.000000000000D+00                                      
C23 2021 08 28 01 00 00-9.608428226784D-04 2.042810365310D-13 0.000000000000D+00
     1.000000000000D+00 8.884375000000D+01 4.211604001640D-09-2.857117619606D+00
     4.454050213099D-06 4.180367104709D-04 8.238013833761D-06 5.282625944138D+03
     5.220000000000D+05 3.864988684654D-08-1.542226132114D+00 7.310882210732D-08
     9.486411176360D-01 1.857187500000D+02-1.601195388512D+00-7.067080086538D-09
     1.900079145923D-10                    8.160000000000D+02                   
     2.000000000000D+00 0.000000000000D+00 2.500000000000D-08 2.500000000000D-08
     5.220000000000D+05 1.000000000000D+00                                      
